{
    "links": {
        "self": "http://www.neowsapp.com/rest/v1/neo/54051097?api_key=iIulBulltgU6a56xZRHN4H3l9WmuAYTsLGpBGhQ2"
    },
    "id": "54051097",
    "neo_reference_id": "54051097",
    "name": "(2020 PW4)",
    "designation": "2020 PW4",
    "nasa_jpl_url": "http://ssd.jpl.nasa.gov/sbdb.cgi?sstr=54051097",
    "absolute_magnitude_h": 26.013,
    "estimated_diameter": {
        "kilometers": {
            "estimated_diameter_min": 0.0166707438,
            "estimated_diameter_max": 0.0372769163
        },
        "meters": {
            "estimated_diameter_min": 16.6707437767,
            "estimated_diameter_max": 37.2769163201
        },
        "miles": {
            "estimated_diameter_min": 0.0103587167,
            "estimated_diameter_max": 0.0231627948
        },
        "feet": {
            "estimated_diameter_min": 54.6940430123,
            "estimated_diameter_max": 122.2995981397
        }
    },
    "is_potentially_hazardous_asteroid": false,
    "close_approach_data": [
        {
            "close_approach_date": "2020-08-22",
            "close_approach_date_full": "2020-Aug-22 01:06",
            "epoch_date_close_approach": 1598058360000,
            "relative_velocity": {
                "kilometers_per_second": "2.7812152818",
                "kilometers_per_hour": "10012.3750145994",
                "miles_per_hour": "6221.3004639326"
            },
            "miss_distance": {
                "astronomical": "0.0781414502",
                "lunar": "30.3970241278",
                "kilometers": "11689794.508631074",
                "miles": "7263701.4853498612"
            },
            "orbiting_body": "Earth"
        },
        {
            "close_approach_date": "2084-08-12",
            "close_approach_date_full": "2084-Aug-12 16:42",
            "epoch_date_close_approach": 3616936920000,
            "relative_velocity": {
                "kilometers_per_second": "3.3067861087",
                "kilometers_per_hour": "11904.4299911715",
                "miles_per_hour": "7396.9498464587"
            },
            "miss_distance": {
                "astronomical": "0.0915555565",
                "lunar": "35.6151114785",
                "kilometers": "13696516.239064655",
                "miles": "8510620.548236039"
            },
            "orbiting_body": "Earth"
        },
        {
            "close_approach_date": "2085-02-07",
            "close_approach_date_full": "2085-Feb-07 07:51",
            "epoch_date_close_approach": 3632370660000,
            "relative_velocity": {
                "kilometers_per_second": "3.697049917",
                "kilometers_per_hour": "13309.3797010583",
                "miles_per_hour": "8269.9309592493"
            },
            "miss_distance": {
                "astronomical": "0.0396223421",
                "lunar": "15.4130910769",
                "kilometers": "5927417.982571327",
                "miles": "3683126.7455132326"
            },
            "orbiting_body": "Mars"
        },
        {
            "close_approach_date": "2091-11-27",
            "close_approach_date_full": "2091-Nov-27 03:40",
            "epoch_date_close_approach": 3846973200000,
            "relative_velocity": {
                "kilometers_per_second": "5.9852610839",
                "kilometers_per_hour": "21546.9399021477",
                "miles_per_hour": "13388.4305186428"
            },
            "miss_distance": {
                "astronomical": "0.4812342365",
                "lunar": "187.2001179985",
                "kilometers": "71991616.751476255",
                "miles": "44733516.328652119"
            },
            "orbiting_body": "Earth"
        }
    ],
    "orbital_data": {
        "orbit_id": "3",
        "orbit_determination_date": "2020-08-26 07:11:48",
        "first_observation_date": "2020-08-14",
        "last_observation_date": "2020-08-26",
        "data_arc_in_days": 12,
        "observations_used": 22,
        "orbit_uncertainty": "8",
        "minimum_orbit_intersection": ".0708812",
        "jupiter_tisserand_invariant": "4.633",
        "epoch_osculation": "2459076.5",
        "eccentricity": ".2482760456970562",
        "semi_major_axis": "1.439716261037701",
        "inclination": ".5478226987837485",
        "ascending_node_longitude": "92.53599344230589",
        "orbital_period": "630.9773817936343",
        "perihelion_distance": "1.08226920082151",
        "perihelion_argument": "236.4534373656639",
        "aphelion_distance": "1.797163321253892",
        "perihelion_time": "2459085.181042419641",
        "mean_anomaly": "355.047088277258",
        "mean_motion": ".5705434305373256",
        "equinox": "J2000",
        "orbit_class": {
            "orbit_class_type": "AMO",
            "orbit_class_description": "Near-Earth asteroid orbits similar to that of 1221 Amor",
            "orbit_class_range": "1.017 AU < q (perihelion) < 1.3 AU"
        }
    },
    "is_sentry_object": false
}